[{"OBJECT_NAME":"STARLINK-35188","OBJECT_ID":"2025-200C","EPOCH":"2026-03-09T17:54:31.856256","MEAN_MOTION":15.05649129,"ECCENTRICITY":6.943e-5,"INCLINATION":97.6033,"RA_OF_ASC_NODE":139.9184,"ARG_OF_PERICENTER":18.8489,"MEAN_ANOMALY":341.2763,"EPHEMERIS_TYPE":0,"CLASSIFICATION_TYPE":"U","NORAD_CAT_ID":65522,"ELEMENT_SET_NO":999,"REV_AT_EPOCH":2914,"BSTAR":0.00037426778,"MEAN_MOTION_DOT":5.343e-5,"MEAN_MOTION_DDOT":0},{"OBJECT_NAME":"RAPIDEYE 3","OBJECT_ID":"2008-040D","EPOCH":"2026-03-09T19:34:21.496512","MEAN_MOTION":15.06489596,"ECCENTRICITY":0.00114187,"INCLINATION":97.3959,"RA_OF_ASC_NODE":102.9968,"ARG_OF_PERICENTER":27.1842,"MEAN_ANOMALY":332.9981,"EPHEMERIS_TYPE":0,"CLASSIFICATION_TYPE":"U","NORAD_CAT_ID":33315,"ELEMENT_SET_NO":999,"REV_AT_EPOCH":95131,"BSTAR":0.00019030529,"MEAN_MOTION_DOT":2.754e-5,"MEAN_MOTION_DDOT":0}]
